[{"OBJECT_NAME":"STARLINK-1227","OBJECT_ID":"2020-012BE","EPOCH":"2026-03-09T04:25:44.093568","MEAN_MOTION":15.31040019,"ECCENTRICITY":0.00010621,"INCLINATION":53.1607,"RA_OF_ASC_NODE":1.2165,"ARG_OF_PERICENTER":82.0274,"MEAN_ANOMALY":278.0847,"EPHEMERIS_TYPE":0,"CLASSIFICATION_TYPE":"U","NORAD_CAT_ID":45230,"ELEMENT_SET_NO":999,"REV_AT_EPOCH":33545,"BSTAR":4.7655496e-5,"MEAN_MOTION_DOT":1.087e-5,"MEAN_MOTION_DDOT":0},{"OBJECT_NAME":"TITAN 3C TRANSTAGE DEB","OBJECT_ID":"1965-082PT","EPOCH":"2026-03-09T13:23:41.116128","MEAN_MOTION":15.28908269,"ECCENTRICITY":0.00104371,"INCLINATION":32.0266,"RA_OF_ASC_NODE":255.1391,"ARG_OF_PERICENTER":172.8339,"MEAN_ANOMALY":187.2474,"EPHEMERIS_TYPE":0,"CLASSIFICATION_TYPE":"U","NORAD_CAT_ID":3462,"ELEMENT_SET_NO":999,"REV_AT_EPOCH":24824,"BSTAR":0.0004444037,"MEAN_MOTION_DOT":0.00012939,"MEAN_MOTION_DDOT":0}]
